{
  "norad_id": 66267,
  "name": "STARLINK-35550",
  "history": [
    {
      "epoch": "2026-04-12T22:55:52.753152Z",
      "apogee_km": 476.31259381766995,
      "perigee_km": 474.09211186734956,
      "latitude_deg": 8.3449181600814e-06,
      "longitude_deg": -153.1503787161402,
      "height_km": 476.28195901360425,
      "semi_major_axis_km": 6853.3393528425095,
      "eccentricity": 0.000162,
      "inclination_deg": 53.1599,
      "raan_deg": 31.9726,
      "arg_perigee_deg": 99.4351,
      "mean_anomaly_deg": 260.6833,
      "mean_motion_rev_day": 15.30204259
    },
    {
      "epoch": "2026-04-14T18:49:22.090080Z",
      "apogee_km": 476.26549970814995,
      "perigee_km": 474.1231483362608,
      "latitude_deg": -5.558537783318485e-05,
      "longitude_deg": -101.81972093095094,
      "height_km": 476.2589718875683,
      "semi_major_axis_km": 6853.331324022205,
      "eccentricity": 0.0001563,
      "inclination_deg": 53.1603,
      "raan_deg": 23.4781,
      "arg_perigee_deg": 98.9645,
      "mean_anomaly_deg": 261.1532,
      "mean_motion_rev_day": 15.30206948
    },
    {
      "epoch": "2026-04-15T01:05:34.917792Z",
      "apogee_km": 476.089792759336,
      "perigee_km": 474.33780216147443,
      "latitude_deg": 1.690903432400139e-05,
      "longitude_deg": 162.65687550337265,
      "height_km": 476.1794442511917,
      "semi_major_axis_km": 6853.350797460405,
      "eccentricity": 0.00012782,
      "inclination_deg": 53.1612,
      "raan_deg": 22.2656,
      "arg_perigee_deg": 94.4162,
      "mean_anomaly_deg": 265.6985,
      "mean_motion_rev_day": 15.30200426
    },
    {
      "epoch": "2026-04-16T03:44:29.130144Z",
      "apogee_km": 476.3044927392739,
      "perigee_km": 474.10361079390987,
      "latitude_deg": 1.9069140129958618e-05,
      "longitude_deg": 116.67538393390825,
      "height_km": 476.2644453180155,
      "semi_major_axis_km": 6853.341051766592,
      "eccentricity": 0.00016057,
      "inclination_deg": 53.1614,
      "raan_deg": 17.1044,
      "arg_perigee_deg": 98.4979,
      "mean_anomaly_deg": 261.6204,
      "mean_motion_rev_day": 15.3020369
    },
    {
      "epoch": "2026-04-17T22:03:55.480896Z",
      "apogee_km": 476.3988803862203,
      "perigee_km": 474.0004866804511,
      "latitude_deg": -9.685230551636602e-06,
      "longitude_deg": -168.1139139825233,
      "height_km": 476.4934451999973,
      "semi_major_axis_km": 6853.336683533335,
      "eccentricity": 0.00017498,
      "inclination_deg": 53.1621,
      "raan_deg": 8.9131,
      "arg_perigee_deg": 109.2821,
      "mean_anomaly_deg": 250.8369,
      "mean_motion_rev_day": 15.30205153
    },
    {
      "epoch": "2026-04-18T10:36:20.908224Z",
      "apogee_km": 475.8924024497446,
      "perigee_km": 474.5028203239399,
      "latitude_deg": -4.691263700261631e-06,
      "longitude_deg": 0.8411268443227405,
      "height_km": 476.18153682717025,
      "semi_major_axis_km": 6853.334611386842,
      "eccentricity": 0.00010138,
      "inclination_deg": 53.1615,
      "raan_deg": 6.4891,
      "arg_perigee_deg": 97.0546,
      "mean_anomaly_deg": 263.057,
      "mean_motion_rev_day": 15.30205847
    },
    {
      "epoch": "2026-04-19T10:07:08.901120Z",
      "apogee_km": 476.5585948098633,
      "perigee_km": 473.90099623389506,
      "latitude_deg": -1.1871954530572143e-05,
      "longitude_deg": 2.624192353641092,
      "height_km": 475.855660909591,
      "semi_major_axis_km": 6853.366795521879,
      "eccentricity": 0.00019389,
      "inclination_deg": 53.1602,
      "raan_deg": 1.9378,
      "arg_perigee_deg": 78.217,
      "mean_anomaly_deg": 281.9048,
      "mean_motion_rev_day": 15.30195068
    },
    {
      "epoch": "2026-04-20T09:37:57.571392Z",
      "apogee_km": 476.06554306482394,
      "perigee_km": 474.42731029051083,
      "latitude_deg": -6.277543012204851e-05,
      "longitude_deg": 4.40479408275524,
      "height_km": 476.0514835845146,
      "semi_major_axis_km": 6853.383426677668,
      "eccentricity": 0.00011952,
      "inclination_deg": 53.1615,
      "raan_deg": 357.3869,
      "arg_perigee_deg": 83.4597,
      "mean_anomaly_deg": 276.6539,
      "mean_motion_rev_day": 15.30189498
    },
    {
      "epoch": "2026-04-21T09:08:44.491200Z",
      "apogee_km": 475.538008562914,
      "perigee_km": 474.7582417813728,
      "latitude_deg": -5.928921031738066e-05,
      "longitude_deg": 6.1929491917359005,
      "height_km": 475.9737665328547,
      "semi_major_axis_km": 6853.285125172143,
      "eccentricity": 5.689e-05,
      "inclination_deg": 53.1599,
      "raan_deg": 352.8362,
      "arg_perigee_deg": 79.1514,
      "mean_anomaly_deg": 280.955,
      "mean_motion_rev_day": 15.30222421
    },
    {
      "epoch": "2026-04-22T19:37:55.315776Z",
      "apogee_km": 476.46741921156445,
      "perigee_km": 473.9234622095728,
      "latitude_deg": 2.0422755838772927e-05,
      "longitude_deg": -159.19320109110018,
      "height_km": 476.19335583105374,
      "semi_major_axis_km": 6853.332440710568,
      "eccentricity": 0.0001856,
      "inclination_deg": 53.1587,
      "raan_deg": 346.1614,
      "arg_perigee_deg": 94.5453,
      "mean_anomaly_deg": 265.576,
      "mean_motion_rev_day": 15.30206574
    },
    {
      "epoch": "2026-04-23T00:20:04.490304Z",
      "apogee_km": 475.84078993186995,
      "perigee_km": 474.5786775973802,
      "latitude_deg": 6.00074464528775e-06,
      "longitude_deg": 129.16513369277038,
      "height_km": 476.72050542112703,
      "semi_major_axis_km": 6853.346733764625,
      "eccentricity": 9.208e-05,
      "inclination_deg": 53.1587,
      "raan_deg": 345.2511,
      "arg_perigee_deg": 165.6963,
      "mean_anomaly_deg": 194.4064,
      "mean_motion_rev_day": 15.30201787
    },
    {
      "epoch": "2026-04-24T20:13:34.093344Z",
      "apogee_km": 476.0472189533102,
      "perigee_km": 474.3256641047983,
      "latitude_deg": -5.0685188321992956e-05,
      "longitude_deg": -179.5041192238772,
      "height_km": 476.07470232409025,
      "semi_major_axis_km": 6853.3234415290535,
      "eccentricity": 0.0001256,
      "inclination_deg": 53.1592,
      "raan_deg": 336.7578,
      "arg_perigee_deg": 89.3504,
      "mean_anomaly_deg": 270.764,
      "mean_motion_rev_day": 15.30209588
    },
    {
      "epoch": "2026-04-25T20:00:01.000224Z",
      "apogee_km": 467.694478746379,
      "perigee_km": 464.3517909365228,
      "latitude_deg": 46.514842206851334,
      "longitude_deg": -129.9299113014438,
      "height_km": 469.38340785564077,
      "semi_major_axis_km": 6844.160134841451,
      "eccentricity": 0.0002442,
      "inclination_deg": 53.159,
      "raan_deg": 332.1496,
      "arg_perigee_deg": 69.8765,
      "mean_anomaly_deg": 354.8727,
      "mean_motion_rev_day": 15.33283699
    }
  ]
}